CS1                     
1 49261U 21088B   26068.75173904  .00015722  00000+0  51176-3 0  9998
2 49261  97.3882 132.1684 0014129  78.0335 282.2490 15.31848439245182
STARLINK-31011          
1 58517U 23191K   26068.41310791 -.00000701  00000+0 -16463-4 0  9993
2 58517  42.9999 104.5994 0000844 246.5904 113.4858 15.26744803125433
